{
  "norad_id": 66060,
  "name": "STARLINK-35558",
  "history": [
    {
      "epoch": "2026-03-28T14:33:00.550368",
      "apogee_km": 476.04464316537997,
      "perigee_km": 474.362833348212,
      "latitude_deg": -39.86078170018945,
      "longitude_deg": 124.20061152009293,
      "semi_major_axis_km": 6853.340738256796,
      "eccentricity": 0.0001227,
      "inclination_deg": 53.1585,
      "raan_deg": 157.6942,
      "arg_perigee_deg": 82.2521,
      "mean_anomaly_deg": 277.8619,
      "mean_motion_rev_day": 15.30203795
    }
  ]
}